IRIDIUM 81 [-]          
1 25468U 98051B   18175.51531625  .01577152 -98692-6  80225-3 0  9997
2 25468  86.4084 225.4780 0325523 325.4036  32.6419 15.61482959 36473
IRIDIUM 80 [+]          
1 25469U 98051C   18175.54366604  .00000112  00000-0  33090-4 0  9998
2 25469  86.3976 226.4179 0002824 101.0607  11.6674 14.34221904 36205
IRIDIUM 2 [-]           
1 25527U 98066A   18175.48345080  .00001120  00000-0  54056-4 0  9992
2 25527  85.5298 172.3436 0010020 147.9384 212.2468 15.17437923 74317
IRIDIUM 86 [+]          
1 25528U 98066B   18175.46770968 -.00000004  00000-0 -86246-5 0  9997
2 25528  86.3966 194.1489 0002055 110.3039 249.8377 14.34219853 32721
IRIDIUM 84 [+]          
1 25530U 98066D   18175.42963523 -.00000027  00000-0 -16869-4 0  9995
2 25530  86.3968 194.3358 0002256  85.5503 274.5951 14.34220652 30354
IRIDIUM 83 [+]          
1 25531U 98066E   18175.46135446 -.00000003  00000-0 -83094-5 0  9994
2 25531  86.3971 194.4632 0002294  85.5878 274.5580 14.34220478 27712
IRIDIUM 20 [B]          
1 25577U 98074A   18175.48796065  .00000155  00000-0  44290-4 0  9995
2 25577  86.4230  99.8053 0001883  65.6638 294.4757 14.38606119 21829
IRIDIUM 11 [B]          
1 25578U 98074B   18175.50414035  .00000116  00000-0  31271-4 0  9995
2 25578  86.4232 100.0177 0002245  59.4427 351.8191 14.38602931 30787
IRIDIUM 14 [+]          
1 25777U 99032A   18175.29544245  .00000159  00000-0  49777-4 0  9991
2 25777  86.3970  68.4469 0002071  87.0956 273.0477 14.34223924  8029
IRIDIUM 91 [+]          
1 27372U 02005A   18175.51165719  .00000107  00000-0  31193-4 0  9994
2 27372  86.3971 131.6007 0001870  85.5849 274.5561 14.34215369864994
IRIDIUM 90 [-]          
1 27373U 02005B   18175.52490160  .00076629  30077-6  38610-3 0  9992
2 27373  86.4311 187.3974 0278723 310.1426  47.5707 15.42625968865997
IRIDIUM 95 [+]          
1 27375U 02005D   18175.41013100  .00000107  00000-0  31102-4 0  9992
2 27375  86.3967 131.6506 0001961  65.4426 294.6974 14.34218164864262
IRIDIUM 96 [-]          
1 27376U 02005E   18175.42284073  .00028722 -96641-6  29414-3 0  9991
2 27376  86.3776 151.6736 0286756 186.9744 172.7482 15.27572245871081
IRIDIUM 97 [B]          
1 27450U 02031A   18175.53208219  .00000026  00000-0  20269-5 0  9998
2 27450  86.4235 163.3220 0002372  83.7934 276.3534 14.38599470843648
IRIDIUM 98 [+]          
1 27451U 02031B   18175.52818869  .00000109  00000-0  31868-4 0  9994
2 27451  86.3969 226.4946 0002312 103.5114 256.6339 14.34222014844674
